{
    "links": {
        "self": "http://www.neowsapp.com/rest/v1/neo/3428257?api_key=iIulBulltgU6a56xZRHN4H3l9WmuAYTsLGpBGhQ2"
    },
    "id": "3428257",
    "neo_reference_id": "3428257",
    "name": "(2008 SG148)",
    "designation": "2008 SG148",
    "nasa_jpl_url": "http://ssd.jpl.nasa.gov/sbdb.cgi?sstr=3428257",
    "absolute_magnitude_h": 22.6,
    "estimated_diameter": {
        "kilometers": {
            "estimated_diameter_min": 0.0802703167,
            "estimated_diameter_max": 0.1794898848
        },
        "meters": {
            "estimated_diameter_min": 80.2703167283,
            "estimated_diameter_max": 179.4898847799
        },
        "miles": {
            "estimated_diameter_min": 0.049877647,
            "estimated_diameter_max": 0.1115298092
        },
        "feet": {
            "estimated_diameter_min": 263.3540659348,
            "estimated_diameter_max": 588.8775935812
        }
    },
    "is_potentially_hazardous_asteroid": false,
    "close_approach_data": [
        {
            "close_approach_date": "2004-10-12",
            "close_approach_date_full": "2004-Oct-12 08:20",
            "epoch_date_close_approach": 1097569200000,
            "relative_velocity": {
                "kilometers_per_second": "9.9010967268",
                "kilometers_per_hour": "35643.9482164018",
                "miles_per_hour": "22147.7632681303"
            },
            "miss_distance": {
                "astronomical": "0.0867550957",
                "lunar": "33.7477322273",
                "kilometers": "12978377.528366159",
                "miles": "8064389.8454006342"
            },
            "orbiting_body": "Mars"
        },
        {
            "close_approach_date": "2008-09-29",
            "close_approach_date_full": "2008-Sep-29 19:45",
            "epoch_date_close_approach": 1222717500000,
            "relative_velocity": {
                "kilometers_per_second": "14.5956682348",
                "kilometers_per_hour": "52544.4056451878",
                "miles_per_hour": "32649.0502743669"
            },
            "miss_distance": {
                "astronomical": "0.0907862572",
                "lunar": "35.3158540508",
                "kilometers": "13581430.702392164",
                "miles": "8439109.7117493032"
            },
            "orbiting_body": "Earth"
        }
    ],
    "orbital_data": {
        "orbit_id": "10",
        "orbit_determination_date": "2017-04-06 09:02:49",
        "first_observation_date": "2008-09-29",
        "last_observation_date": "2008-10-09",
        "data_arc_in_days": 10,
        "observations_used": 38,
        "orbit_uncertainty": "8",
        "minimum_orbit_intersection": ".0794043",
        "jupiter_tisserand_invariant": "4.753",
        "epoch_osculation": "2454739.5",
        "eccentricity": ".2017564626759641",
        "semi_major_axis": "1.345385855165428",
        "inclination": "27.19879232095282",
        "ascending_node_longitude": "7.466058511530632",
        "orbital_period": "569.9919378771327",
        "perihelion_distance": "1.073945564092974",
        "perihelion_argument": "16.01237631385458",
        "aphelion_distance": "1.616826146237881",
        "perihelion_time": "2454753.726671676389",
        "mean_anomaly": "351.0146065879899",
        "mean_motion": ".6315878805949032",
        "equinox": "J2000",
        "orbit_class": {
            "orbit_class_type": "AMO",
            "orbit_class_description": "Near-Earth asteroid orbits similar to that of 1221 Amor",
            "orbit_class_range": "1.017 AU < q (perihelion) < 1.3 AU"
        }
    },
    "is_sentry_object": false
}